{
  "type": "FeatureCollection",
  "features": [
    {
      "type": "Feature",
      "properties": {
        "norad_id": 66669,
        "name": "TRANSPORTER-15D",
        "group": "last-30-days",
        "lat": -29.215812747174468,
        "lon": 75.22332162241636,
        "alt_km": 486.8194289252806,
        "timestamp": "2025-12-25T09:48:51.004093+00:00",
        "meta_object_name": "TRANSPORTER-15D",
        "meta_object_id": "2025-276D",
        "meta_epoch": "2025-12-21T02:39:18.210816",
        "meta_mean_motion": 15.34134881,
        "meta_eccentricity": 0.00748198,
        "meta_inclination": 97.4314,
        "meta_ra_of_asc_node": 66.7079,
        "meta_arg_of_pericenter": 232.3102,
        "meta_mean_anomaly": 127.1341,
        "meta_ephemeris_type": 0,
        "meta_classification_type": "U",
        "meta_norad_cat_id": 66669,
        "meta_element_set_no": 999,
        "meta_rev_at_epoch": 339,
        "meta_bstar": 0.0027830351,
        "meta_mean_motion_dot": 0.00101698,
        "meta_mean_motion_ddot": 0,
        "tle_line1": "1 66669U 25276D   25355.11062744  .00101698  00000+0  27830-2 0  9996",
        "tle_line2": "2 66669  97.4314  66.7079 0074819 232.3102 127.1341 15.34134881  3392"
      },
      "geometry": {
        "type": "Point",
        "coordinates": [
          75.22332162241636,
          -29.215812747174468
        ]
      }
    },
    {
      "type": "Feature",
      "properties": {
        "norad_id": 66670,
        "name": "HUNITY",
        "group": "last-30-days",
        "lat": -3.5001601039838093,
        "lon": 71.35160308309918,
        "alt_km": 517.8233370134212,
        "timestamp": "2025-12-25T09:48:51.004107+00:00",
        "meta_object_name": "HUNITY",
        "meta_object_id": "2025-276E",
        "meta_epoch": "2025-12-24T22:45:02.549952",
        "meta_mean_motion": 15.17341022,
        "meta_eccentricity": 0.0007183,
        "meta_inclination": 97.4295,
        "meta_ra_of_asc_node": 70.4422,
        "meta_arg_of_pericenter": 262.6039,
        "meta_mean_anomaly": 97.4378,
        "meta_ephemeris_type": 0,
        "meta_classification_type": "U",
        "meta_norad_cat_id": 66670,
        "meta_element_set_no": 999,
        "meta_rev_at_epoch": 397,
        "meta_bstar": 0.0012062,
        "meta_mean_motion_dot": 0.00024074,
        "meta_mean_motion_ddot": 0,
        "tle_line1": "1 66670U 25276E   25358.94794618  .00024074  00000+0  12062-2 0  9997",
        "tle_line2": "2 66670  97.4295  70.4422 0007183 262.6039  97.4378 15.17341022  3972"
      },
      "geometry": {
        "type": "Point",
        "coordinates": [
          71.35160308309918,
          -3.5001601039838093
        ]
      }
    },
    {
      "type": "Feature",
      "properties": {
        "norad_id": 66671,
        "name": "TRANSPORTER-15F",
        "group": "last-30-days",
        "lat": 6.197878218102813,
        "lon": 70.1240810444118,
        "alt_km": 518.653952198848,
        "timestamp": "2025-12-25T09:48:51.004117+00:00",
        "meta_object_name": "TRANSPORTER-15F",
        "meta_object_id": "2025-276F",
        "meta_epoch": "2025-12-25T03:27:18.336672",
        "meta_mean_motion": 15.17170782,
        "meta_eccentricity": 0.0005051,
        "meta_inclination": 97.4418,
        "meta_ra_of_asc_node": 70.6772,
        "meta_arg_of_pericenter": 241.3933,
        "meta_mean_anomaly": 118.6793,
        "meta_ephemeris_type": 0,
        "meta_classification_type": "U",
        "meta_norad_cat_id": 66671,
        "meta_element_set_no": 999,
        "meta_rev_at_epoch": 400,
        "meta_bstar": 0.00074142,
        "meta_mean_motion_dot": 0.00014677,
        "meta_mean_motion_ddot": 0,
        "tle_line1": "1 66671U 25276F   25359.14396223  .00014677  00000+0  74142-3 0  9997",
        "tle_line2": "2 66671  97.4418  70.6772 0005051 241.3933 118.6793 15.17170782  4004"
      },
      "geometry": {
        "type": "Point",
        "coordinates": [
          70.1240810444118,
          6.197878218102813
        ]
      }
    },
    {
      "type": "Feature",
      "properties": {
        "norad_id": 66672,
        "name": "TRANSPORTER-15G",
        "group": "last-30-days",
        "lat": -24.36569818686043,
        "lon": 74.30810547044085,
        "alt_km": 521.9958004080199,
        "timestamp": "2025-12-25T09:48:51.004128+00:00",
        "meta_object_name": "TRANSPORTER-15G",
        "meta_object_id": "2025-276G",
        "meta_epoch": "2025-12-25T03:35:19.036032",
        "meta_mean_motion": 15.16652426,
        "meta_eccentricity": 0.0005513,
        "meta_inclination": 97.4389,
        "meta_ra_of_asc_node": 70.6612,
        "meta_arg_of_pericenter": 240.1399,
        "meta_mean_anomaly": 119.9287,
        "meta_ephemeris_type": 0,
        "meta_classification_type": "U",
        "meta_norad_cat_id": 66672,
        "meta_element_set_no": 999,
        "meta_rev_at_epoch": 400,
        "meta_bstar": 0.00046213,
        "meta_mean_motion_dot": 8.983e-05,
        "meta_mean_motion_ddot": 0,
        "tle_line1": "1 66672U 25276G   25359.14952588  .00008983  00000+0  46213-3 0  9991",
        "tle_line2": "2 66672  97.4389  70.6612 0005513 240.1399 119.9287 15.16652426  4002"
      },
      "geometry": {
        "type": "Point",
        "coordinates": [
          74.30810547044085,
          -24.36569818686043
        ]
      }
    },
    {
      "type": "Feature",
      "properties": {
        "norad_id": 66673,
        "name": "TRANSPORTER-15H",
        "group": "last-30-days",
        "lat": 7.335656661564593,
        "lon": 69.95403908400193,
        "alt_km": 505.782376819966,
        "timestamp": "2025-12-25T09:48:51.004140+00:00",
        "meta_object_name": "TRANSPORTER-15H",
        "meta_object_id": "2025-276H",
        "meta_epoch": "2025-12-24T21:08:16.208160",
        "meta_mean_motion": 15.18860763,
        "meta_eccentricity": 0.0010895,
        "meta_inclination": 97.436,
        "meta_ra_of_asc_node": 70.3973,
        "meta_arg_of_pericenter": 293.3865,
        "meta_mean_anomaly": 66.6223,
        "meta_ephemeris_type": 0,
        "meta_classification_type": "U",
        "meta_norad_cat_id": 66673,
        "meta_element_set_no": 999,
        "meta_rev_at_epoch": 396,
        "meta_bstar": 0.056292,
        "meta_mean_motion_dot": 0.01286251,
        "meta_mean_motion_ddot": 0,
        "tle_line1": "1 66673U 25276H   25358.88074315  .01286251  00000+0  56292-1 0  9998",
        "tle_line2": "2 66673  97.4360  70.3973 0010895 293.3865  66.6223 15.18860763  3965"
      },
      "geometry": {
        "type": "Point",
        "coordinates": [
          69.95403908400193,
          7.335656661564593
        ]
      }
    },
    {
      "type": "Feature",
      "properties": {
        "norad_id": 66674,
        "name": "TRANSPORTER-15J",
        "group": "last-30-days",
        "lat": -13.796330258734086,
        "lon": 72.75166549408813,
        "alt_km": 521.0090385004396,
        "timestamp": "2025-12-25T09:48:51.004152+00:00",
        "meta_object_name": "TRANSPORTER-15J",
        "meta_object_id": "2025-276J",
        "meta_epoch": "2025-12-24T22:47:31.864704",
        "meta_mean_motion": 15.16766946,
        "meta_eccentricity": 0.0005262,
        "meta_inclination": 97.4367,
        "meta_ra_of_asc_node": 70.4632,
        "meta_arg_of_pericenter": 246.0824,
        "meta_mean_anomaly": 113.9858,
        "meta_ephemeris_type": 0,
        "meta_classification_type": "U",
        "meta_norad_cat_id": 66674,
        "meta_element_set_no": 999,
        "meta_rev_at_epoch": 397,
        "meta_bstar": 0.00061091,
        "meta_mean_motion_dot": 0.00011939,
        "meta_mean_motion_ddot": 0,
        "tle_line1": "1 66674U 25276J   25358.94967436  .00011939  00000+0  61091-3 0  9994",
        "tle_line2": "2 66674  97.4367  70.4632 0005262 246.0824 113.9858 15.16766946  3975"
      },
      "geometry": {
        "type": "Point",
        "coordinates": [
          72.75166549408813,
          -13.796330258734086
        ]
      }
    },
    {
      "type": "Feature",
      "properties": {
        "norad_id": 66675,
        "name": "TRANSPORTER-15K",
        "group": "last-30-days",
        "lat": -0.2061174866208082,
        "lon": 70.9496614989096,
        "alt_km": 519.162608880366,
        "timestamp": "2025-12-25T09:48:51.004162+00:00",
        "meta_object_name": "TRANSPORTER-15K",
        "meta_object_id": "2025-276K",
        "meta_epoch": "2025-12-25T01:53:59.671968",
        "meta_mean_motion": 15.17040244,
        "meta_eccentricity": 0.0005451,
        "meta_inclination": 97.4384,
        "meta_ra_of_asc_node": 70.5991,
        "meta_arg_of_pericenter": 251.3095,
        "meta_mean_anomaly": 108.7547,
        "meta_ephemeris_type": 0,
        "meta_classification_type": "U",
        "meta_norad_cat_id": 66675,
        "meta_element_set_no": 999,
        "meta_rev_at_epoch": 399,
        "meta_bstar": 0.00023807,
        "meta_mean_motion_dot": 4.644e-05,
        "meta_mean_motion_ddot": 0,
        "tle_line1": "1 66675U 25276K   25359.07916287  .00004644  00000+0  23807-3 0  9996",
        "tle_line2": "2 66675  97.4384  70.5991 0005451 251.3095 108.7547 15.17040244  3999"
      },
      "geometry": {
        "type": "Point",
        "coordinates": [
          70.9496614989096,
          -0.2061174866208082
        ]
      }
    }
  ]
}